[{"OBJECT_NAME":"STARLINK-32114","OBJECT_ID":"2024-132K","EPOCH":"2026-03-09T22:27:23.080320","MEAN_MOTION":15.30189887,"ECCENTRICITY":0.00012602,"INCLINATION":53.161,"RA_OF_ASC_NODE":51.5983,"ARG_OF_PERICENTER":90.0638,"MEAN_ANOMALY":270.0508,"EPHEMERIS_TYPE":0,"CLASSIFICATION_TYPE":"U","NORAD_CAT_ID":60287,"ELEMENT_SET_NO":999,"REV_AT_EPOCH":9159,"BSTAR":-2.22576e-6,"MEAN_MOTION_DOT":-4.25e-6,"MEAN_MOTION_DDOT":0},{"OBJECT_NAME":"OBJECT A","OBJECT_ID":"2025-013A","EPOCH":"2026-03-09T23:29:31.895232","MEAN_MOTION":15.29260221,"ECCENTRICITY":0.0010321,"INCLINATION":97.6364,"RA_OF_ASC_NODE":244.5149,"ARG_OF_PERICENTER":282.3775,"MEAN_ANOMALY":77.6309,"EPHEMERIS_TYPE":0,"CLASSIFICATION_TYPE":"U","NORAD_CAT_ID":62729,"ELEMENT_SET_NO":999,"REV_AT_EPOCH":6276,"BSTAR":0.0013206527,"MEAN_MOTION_DOT":0.00037616,"MEAN_MOTION_DDOT":0}]
